Skip Page Navigation
NASA Logo - Jet Propulsion Laboratory				+ View the NASA Portal
+ Center for Near-Earth Object Studies			
JPL Home	Earth	Solar System	Stars & Galaxies	Technology

JPL Solar System Dynamics
BODIES		ORBITS		EPHEMERIDES		TOOLS		PHYSICAL DATA		DISCOVERY		FAQ		SITE MAP

IMPORTANT: The SSD Announcement email list is now available. Major changes are coming in the near future, including possible hostname and/or URL changes. To be notified of such changes, subscribe to this email list.

Please visit this page for more details.


Don't show this message again
HORIZONS Web-Interface
This tool provides a web-based limited interface to JPL's HORIZONS system which can be used to generate ephemerides for solar-system bodies. Full access to HORIZONS features is available via the primary telnet interface. HORIZONS system news shows recent changes and improvements. A web-interface tutorial is available to assist new users.
Current Settings
Ephemeris Type [change] : 	ELEMENTS
Target Body [change] : 	Titan (SVI) [606]
Center [change] : 	Saturn System Barycenter [500@6]
Time Span [change] : 	Start=JD 2458850.0, Stop=JD 2464329.0, Intervals=500
Table Settings [change] : 	CSV format=YES
Display/Output [change] : 	default (formatted HTML)
Object Data Page
 Revised: Jan 23, 2020              Titan / (Saturn)                        606
                         http://ssd.jpl.nasa.gov/?sat_phys_par
                           http://ssd.jpl.nasa.gov/?sat_elem

 SATELLITE PHYSICAL PROPERTIES:
  Mean Radius (km)       = 2575.5   +-  2.0  Density (g/cm^3) =  1.880 +- 0.004
  Mass (10^19 kg)        = 13455.3           Geometric Albedo =  0.2 
  GM (km^3/s^2)          = 8978.14  +-  0.06  V(1,0)          = -1.2 

 SATELLITE ORBITAL DATA:
  Semi-major axis, a (km)= 1221.87 (10^3)  Orbital period     = 15.945421 d
  Eccentricity, e        = 0.0288          Rotational period  = 
  Inclination, i  (deg)  = 0.28
Results
*******************************************************************************
Ephemeris / WWW_USER Fri May 15 20:13:12 2020 Pasadena, USA      / Horizons    
*******************************************************************************
Target body name: Titan (606)                     {source: sat427l_merged_DE438}
Center body name: Saturn Barycenter (6)           {source: sat427l_merged_DE438}
Center-site name: BODY CENTER
*******************************************************************************
Start time      : A.D. 2020-Jan-01 12:00:00.0000 TDB
Stop  time      : A.D. 2035-Jan-01 12:00:00.0000 TDB
Step-size       : 500 steps
*******************************************************************************
Center geodetic : 0.00000000,0.00000000,0.0000000 {E-lon(deg),Lat(deg),Alt(km)}
Center cylindric: 0.00000000,0.00000000,0.0000000 {E-lon(deg),Dxy(km),Dz(km)}
Center radii    : (undefined)                                                  
Keplerian GM    : 8.4537018618351386E-08 au^3/d^2
Output units    : AU-D, deg, Julian Day Number (Tp)                            
Output type     : GEOMETRIC osculating elements
Output format   : 10
Reference frame : ICRF/J2000.0                                                 
Coordinate systm: Ecliptic and Mean Equinox of Reference Epoch                 
*******************************************************************************
            JDTDB,            Calendar Date (TDB),                     EC,                     QR,                     IN,                     OM,                      W,                     Tp,                      N,                     MA,                     TA,                      A,                     AD,                     PR,
**************************************************************************************************************************************************************************************************************************************************************************************************************************************************
$$SOE
2460899.146000000, A.D. 2025-Aug-11 15:30:14.4000,  2.882797872363772E-02,  7.931018482866616E-03,  2.771010651423439E+01,  1.690751376787235E+02,  1.777956761497720E+02,  2.460898324646528E+06,  2.257339579735277E+01,  1.854073702391925E+01,  1.962819820755648E+01,  8.166440454537885E-03,  8.401862426209156E-03,  1.594797713342792E+01,
2460910.104000000, A.D. 2025-Aug-22 14:29:45.6000,  2.874354850278890E-02,  7.931274651937941E-03,  2.771013817623707E+01,  1.690753967843521E+02,  1.776864354348995E+02,  2.460914265762990E+06,  2.257524576930573E+01,  2.660471776673005E+02,  2.627711496461042E+02,  8.165994305326597E-03,  8.400713958715252E-03,  1.594667024575526E+01,
2460921.062000000, A.D. 2025-Sep-02 13:29:16.8000,  2.869057806376443E-02,  7.932015554145933E-03,  2.770991135025033E+01,  1.690753390039638E+02,  1.778216691696288E+02,  2.460914270458712E+06,  2.257392941089469E+01,  1.533117736345237E+02,  1.547423472255009E+02,  8.166311759165303E-03,  8.400607964184671E-03,  1.594760014737424E+01,
2460932.020000000, A.D. 2025-Sep-13 12:28:48.0000,  2.879865475029659E-02,  7.930944284331711E-03,  2.770983809342819E+01,  1.690759140637771E+02,  1.778533628246887E+02,  2.460930218123314E+06,  2.257473498656680E+01,  4.067688867186055E+01,  4.288760905276557E+01,  8.166117482356456E-03,  8.401290680381200E-03,  1.594703105990921E+01,
2460942.978000000, A.D. 2025-Sep-24 11:28:19.2000,  2.877510330720660E-02,  7.931265784331176E-03,  2.770982259617075E+01,  1.690758348751382E+02,  1.777097550257144E+02,  2.460946157773645E+06,  2.257418347836112E+01,  2.882192063210669E+02,  2.850531365336269E+02,  8.166250485689414E-03,  8.401235187047652E-03,  1.594742066064469E+01,
2460953.936000000, A.D. 2025-Oct-05 10:27:50.4000,  2.869613469696920E-02,  7.931834838329772E-03,  2.770971539434221E+01,  1.690763495058907E+02,  1.778488981806389E+02,  2.460946162728662E+06,  2.257450717205895E+01,  1.754777695667779E+02,  1.757280776222219E+02,  8.166172422113416E-03,  8.400510005897059E-03,  1.594719199210609E+01,
2460964.894000000, A.D. 2025-Oct-16 09:27:21.6000,  2.877111346685952E-02,  7.931202746642666E-03,  2.770975325121289E+01,  1.690760581517767E+02,  1.779457583761785E+02,  2.460962112997883E+06,  2.257459171600917E+01,  6.277998737260197E+01,  6.575945735150366E+01,  8.166152033382747E-03,  8.401101320122829E-03,  1.594713226838559E+01,
2460975.852000000, A.D. 2025-Oct-27 08:26:52.8000,  2.878706064473964E-02,  7.931201313133554E-03,  2.770950237372059E+01,  1.690763739594616E+02,  1.777657467622548E+02,  2.460978051108990E+06,  2.257404184020740E+01,  3.103572216445115E+02,  3.077844542091817E+02,  8.166284644435116E-03,  8.401367975736677E-03,  1.594752072084812E+01,
2460986.810000000, A.D. 2025-Nov-07 07:26:24.0000,  2.870572682864939E-02,  7.931645928456233E-03,  2.770948583507671E+01,  1.690765091188262E+02,  1.778452051076389E+02,  2.460994000417412E+06,  2.257497925671889E+01,  1.976764760753397E+02,  1.967107716806201E+02,  8.166058575182161E-03,  8.400471221908087E-03,  1.594685850676274E+01,
2460997.768000000, A.D. 2025-Nov-18 06:25:55.2000,  2.875785185644597E-02,  7.931497372343785E-03,  2.770923654316187E+01,  1.690767198874731E+02,  1.780285106288333E+02,  2.460994007388356E+06,  2.257379622595590E+01,  8.489128093445565E+01,  8.818232472609346E+01,  8.166343879849285E-03,  8.401190387354786E-03,  1.594769423789089E+01,
2461008.726000000, A.D. 2025-Nov-29 05:25:26.4000,  2.879358460805171E-02,  7.930910856182747E-03,  2.770934551332051E+01,  1.690771223328584E+02,  1.778810753742275E+02,  2.461009946962290E+06,  2.257505449069838E+01,  3.324367097858972E+02,  3.308598864668014E+02,  8.166040432282444E-03,  8.401170008382142E-03,  1.594680536201280E+01,
2461019.684000000, A.D. 2025-Dec-10 04:24:57.6000,  2.869284092855803E-02,  7.932046641279418E-03,  2.770914581647472E+01,  1.690769890437793E+02,  1.778501304959697E+02,  2.461025891863202E+06,  2.257371781862421E+01,  2.198654478115887E+02,  2.178148688454114E+02,  8.166362789771221E-03,  8.400678938263023E-03,  1.594774963045679E+01,
2461030.642000000, A.D. 2025-Dec-21 03:24:28.8000,  2.874008002505948E-02,  7.931308580565096E-03,  2.770917087237595E+01,  1.690773132189305E+02,  1.780250341385959E+02,  2.461025898336765E+06,  2.257522183841218E+01,  1.070892498596483E+02,  1.102027817455120E+02,  8.166000076240900E-03,  8.400691571916707E-03,  1.594668715004399E+01,
2461041.600000000, A.D. 2026-Jan-01 02:24:00.0000,  2.882288356188077E-02,  7.931002805600407E-03,  2.770893501775978E+01,  1.690770778452543E+02,  1.779683940872437E+02,  2.461041841674061E+06,  2.257364037338406E+01,  3.545445366756526E+02,  3.542188662754391E+02,  8.166381467767780E-03,  8.401760129935151E-03,  1.594780434370993E+01,
2461052.558000000, A.D. 2026-Jan-12 01:23:31.2000,  2.871478805586127E-02,  7.931601959807149E-03,  2.770879603901269E+01,  1.690776334742071E+02,  1.779136380201810E+02,  2.461057785242848E+06,  2.257485106711763E+01,  2.419957712143471E+02,  2.391399329196967E+02,  8.166089488720970E-03,  8.400577017634791E-03,  1.594694905980458E+01,
2461063.516000000, A.D. 2026-Jan-23 00:23:02.4000,  2.870558381604623E-02,  7.931756246985052E-03,  2.770877466992942E+01,  1.690776373834281E+02,  1.780664004263246E+02,  2.461057790815817E+06,  2.257451326928075E+01,  1.292432463260713E+02,  1.317334175878602E+02,  8.166170951695098E-03,  8.400585656405144E-03,  1.594718768487849E+01,
2461074.474000000, A.D. 2026-Feb-02 23:22:33.6000,  2.881283711449862E-02,  7.930990873945771E-03,  2.770858244461697E+01,  1.690780894466380E+02,  1.780440798367030E+02,  2.461073735884985E+06,  2.257404158915708E+01,  1.666223904708743E+01,  1.764266831646019E+01,  8.166284704981010E-03,  8.401578536016250E-03,  1.594752089820361E+01,
